{
    "links": {
        "self": "http://www.neowsapp.com/rest/v1/neo/3672293?api_key=iIulBulltgU6a56xZRHN4H3l9WmuAYTsLGpBGhQ2"
    },
    "id": "3672293",
    "neo_reference_id": "3672293",
    "name": "(2014 KX21)",
    "designation": "2014 KX21",
    "nasa_jpl_url": "http://ssd.jpl.nasa.gov/sbdb.cgi?sstr=3672293",
    "absolute_magnitude_h": 25.5,
    "estimated_diameter": {
        "kilometers": {
            "estimated_diameter_min": 0.0211132445,
            "estimated_diameter_max": 0.0472106499
        },
        "meters": {
            "estimated_diameter_min": 21.113244479,
            "estimated_diameter_max": 47.2106498806
        },
        "miles": {
            "estimated_diameter_min": 0.0131191578,
            "estimated_diameter_max": 0.0293353287
        },
        "feet": {
            "estimated_diameter_min": 69.2691770164,
            "estimated_diameter_max": 154.8905885541
        }
    },
    "is_potentially_hazardous_asteroid": false,
    "close_approach_data": [
        {
            "close_approach_date": "2014-05-23",
            "close_approach_date_full": "2014-May-23 10:22",
            "epoch_date_close_approach": 1400840520000,
            "relative_velocity": {
                "kilometers_per_second": "6.6515330004",
                "kilometers_per_hour": "23945.5188015876",
                "miles_per_hour": "14878.8141686865"
            },
            "miss_distance": {
                "astronomical": "0.0608643663",
                "lunar": "23.6762384907",
                "kilometers": "9105179.557379781",
                "miles": "5657696.2260957378"
            },
            "orbiting_body": "Earth"
        }
    ],
    "orbital_data": {
        "orbit_id": "6",
        "orbit_determination_date": "2017-04-06 08:40:25",
        "first_observation_date": "2014-05-21",
        "last_observation_date": "2014-05-28",
        "data_arc_in_days": 7,
        "observations_used": 18,
        "orbit_uncertainty": "8",
        "minimum_orbit_intersection": ".0595299",
        "jupiter_tisserand_invariant": "3.484",
        "epoch_osculation": "2456802.5",
        "eccentricity": ".5133062622328511",
        "semi_major_axis": "2.192577033120373",
        "inclination": "4.516558904901359",
        "ascending_node_longitude": "70.93603783043365",
        "orbital_period": "1185.852621026714",
        "perihelion_distance": "1.06711351159176",
        "perihelion_argument": "162.2891916153594",
        "aphelion_distance": "3.318040554648986",
        "perihelion_time": "2456793.493111735917",
        "mean_anomaly": "2.734302490525791",
        "mean_motion": ".3035790397699769",
        "equinox": "J2000",
        "orbit_class": {
            "orbit_class_type": "AMO",
            "orbit_class_description": "Near-Earth asteroid orbits similar to that of 1221 Amor",
            "orbit_class_range": "1.017 AU < q (perihelion) < 1.3 AU"
        }
    },
    "is_sentry_object": false
}